RCM-1                   
1 44322U 19033A   26198.31320813  .00000551  00000+0  58995-4 0  9998
2 44322  97.7604 205.3347 0001510  92.6529 326.4820 14.92588651386577
RCM-3                   
1 44323U 19033B   26198.25778880 -.00000189  00000+0 -12917-4 0  9996
2 44323  97.7603 205.3744 0001524  91.7572 268.3821 14.92586969386587
RCM-2                   
1 44324U 19033C   26198.27999605  .00000244  00000+0  29111-4 0  9993
2 44324  97.7605 205.3466 0001539  91.5604 268.5792 14.92588547386573
