{"fetched_at":"2026-07-17T17:38:33.372Z","source":"https://celestrak.org/NORAD/elements/gp.php?NAME=RCM&FORMAT=JSON","constellation":"rcm","records":[{"OBJECT_NAME":"RCM-1","OBJECT_ID":"2019-033A","EPOCH":"2026-07-17T07:31:01.182432","CLASSIFICATION_TYPE":"U","MEAN_MOTION":14.92588651,"ECCENTRICITY":0.00015104,"INCLINATION":97.7604,"RA_OF_ASC_NODE":205.3347,"ARG_OF_PERICENTER":92.6529,"MEAN_ANOMALY":326.482,"EPHEMERIS_TYPE":0,"NORAD_CAT_ID":44322,"ELEMENT_SET_NO":999,"REV_AT_EPOCH":38657,"BSTAR":0.000058994781,"MEAN_MOTION_DOT":0.00000551,"MEAN_MOTION_DDOT":0},{"OBJECT_NAME":"RCM-3","OBJECT_ID":"2019-033B","EPOCH":"2026-07-17T06:11:12.952320","CLASSIFICATION_TYPE":"U","MEAN_MOTION":14.92586969,"ECCENTRICITY":0.00015246,"INCLINATION":97.7603,"RA_OF_ASC_NODE":205.3744,"ARG_OF_PERICENTER":91.7572,"MEAN_ANOMALY":268.3821,"EPHEMERIS_TYPE":0,"NORAD_CAT_ID":44323,"ELEMENT_SET_NO":999,"REV_AT_EPOCH":38658,"BSTAR":-0.000012916704,"MEAN_MOTION_DOT":-0.00000189,"MEAN_MOTION_DDOT":0},{"OBJECT_NAME":"RCM-2","OBJECT_ID":"2019-033C","EPOCH":"2026-07-17T06:43:11.658720","CLASSIFICATION_TYPE":"U","MEAN_MOTION":14.92588547,"ECCENTRICITY":0.00015394,"INCLINATION":97.7605,"RA_OF_ASC_NODE":205.3466,"ARG_OF_PERICENTER":91.5604,"MEAN_ANOMALY":268.5792,"EPHEMERIS_TYPE":0,"NORAD_CAT_ID":44324,"ELEMENT_SET_NO":999,"REV_AT_EPOCH":38657,"BSTAR":0.000029111145,"MEAN_MOTION_DOT":0.00000244,"MEAN_MOTION_DDOT":0}]}
